{
  "links" : {
    "next" : "https://api.nasa.gov/neo/rest/v1/feed?start_date=2013-09-16&end_date=2013-09-16&detailed=true&api_key=t0TVs3DtDT2H8Oy2Zy8m2eVrNsAVKAexjcZXUckd",
    "prev" : "https://api.nasa.gov/neo/rest/v1/feed?start_date=2013-09-14&end_date=2013-09-14&detailed=true&api_key=t0TVs3DtDT2H8Oy2Zy8m2eVrNsAVKAexjcZXUckd",
    "self" : "https://api.nasa.gov/neo/rest/v1/feed?start_date=2013-09-15&end_date=2013-09-15&detailed=true&api_key=t0TVs3DtDT2H8Oy2Zy8m2eVrNsAVKAexjcZXUckd"
  },
  "element_count" : 7,
  "near_earth_objects" : {
    "2013-09-15" : [ {
      "links" : {
        "self" : "https://api.nasa.gov/neo/rest/v1/neo/3183840?api_key=t0TVs3DtDT2H8Oy2Zy8m2eVrNsAVKAexjcZXUckd"
      },
      "neo_reference_id" : "3183840",
      "name" : "(2004 LK)",
      "nasa_jpl_url" : "http://ssd.jpl.nasa.gov/sbdb.cgi?sstr=3183840",
      "absolute_magnitude_h" : 22.7,
      "estimated_diameter" : {
        "kilometers" : {
          "estimated_diameter_min" : 0.0766575574,
          "estimated_diameter_max" : 0.1714115092
        },
        "meters" : {
          "estimated_diameter_min" : 76.6575573531,
          "estimated_diameter_max" : 171.4115092306
        },
        "miles" : {
          "estimated_diameter_min" : 0.0476327831,
          "estimated_diameter_max" : 0.1065101409
        },
        "feet" : {
          "estimated_diameter_min" : 251.5011804664,
          "estimated_diameter_max" : 562.3737359442
        }
      },
      "is_potentially_hazardous_asteroid" : false,
      "close_approach_data" : [ {
        "close_approach_date" : "2013-09-15",
        "epoch_date_close_approach" : 1379228400000,
        "relative_velocity" : {
          "kilometers_per_second" : "15.6109999352",
          "kilometers_per_hour" : "56199.5997665936",
          "miles_per_hour" : "34920.2457549704"
        },
        "miss_distance" : {
          "astronomical" : "0.3093099797",
          "lunar" : "120.3215866089",
          "kilometers" : "46272116",
          "miles" : "28752160"
        },
        "orbiting_body" : "Earth"
      } ],
      "orbital_data" : {
        "orbit_id" : "20",
        "orbit_determination_date" : "2017-04-06 09:12:42",
        "orbit_uncertainty" : "0",
        "minimum_orbit_intersection" : ".0715986",
        "jupiter_tisserand_invariant" : "3.567",
        "epoch_osculation" : "2458000.5",
        "eccentricity" : ".5113972261229558",
        "semi_major_axis" : "2.092307840561529",
        "inclination" : "7.793112914469717",
        "ascending_node_longitude" : "75.81169308743929",
        "orbital_period" : "1105.44413694635",
        "perihelion_distance" : "1.022307414703052",
        "perihelion_argument" : "230.2803676113191",
        "aphelion_distance" : "3.162308266420007",
        "perihelion_time" : "2457629.488786711734",
        "mean_anomaly" : "120.8238682713807",
        "mean_motion" : ".3256609610273519",
        "equinox" : "J2000"
      }
    }, {
      "links" : {
        "self" : "https://api.nasa.gov/neo/rest/v1/neo/3409961?api_key=t0TVs3DtDT2H8Oy2Zy8m2eVrNsAVKAexjcZXUckd"
      },
      "neo_reference_id" : "3409961",
      "name" : "(2008 HB38)",
      "nasa_jpl_url" : "http://ssd.jpl.nasa.gov/sbdb.cgi?sstr=3409961",
      "absolute_magnitude_h" : 21.2,
      "estimated_diameter" : {
        "kilometers" : {
          "estimated_diameter_min" : 0.1529519353,
          "estimated_diameter_max" : 0.3420109247
        },
        "meters" : {
          "estimated_diameter_min" : 152.9519353442,
          "estimated_diameter_max" : 342.0109247198
        },
        "miles" : {
          "estimated_diameter_min" : 0.095039897,
          "estimated_diameter_max" : 0.2125156703
        },
        "feet" : {
          "estimated_diameter_min" : 501.8108275547,
          "estimated_diameter_max" : 1122.0831222578
        }
      },
      "is_potentially_hazardous_asteroid" : true,
      "close_approach_data" : [ {
        "close_approach_date" : "2013-09-15",
        "epoch_date_close_approach" : 1379228400000,
        "relative_velocity" : {
          "kilometers_per_second" : "10.4245746516",
          "kilometers_per_hour" : "37528.4687458918",
          "miles_per_hour" : "23318.7310382459"
        },
        "miss_distance" : {
          "astronomical" : "0.0326484706",
          "lunar" : "12.700255394",
          "kilometers" : "4884141.5",
          "miles" : "3034865"
        },
        "orbiting_body" : "Earth"
      } ],
      "orbital_data" : {
        "orbit_id" : "51",
        "orbit_determination_date" : "2017-04-06 09:03:34",
        "orbit_uncertainty" : "0",
        "minimum_orbit_intersection" : ".00300594",
        "jupiter_tisserand_invariant" : "3.846",
        "epoch_osculation" : "2458000.5",
        "eccentricity" : ".4924298444358191",
        "semi_major_axis" : "1.853800898069743",
        "inclination" : "1.021165896478415",
        "ascending_node_longitude" : "102.6841152231644",
        "orbital_period" : "921.9196234010238",
        "perihelion_distance" : ".9409340102182778",
        "perihelion_argument" : "209.5097784984613",
        "aphelion_distance" : "2.766667785921209",
        "perihelion_time" : "2458364.690870030623",
        "mean_anomaly" : "217.7872627037103",
        "mean_motion" : ".3904895729108527",
        "equinox" : "J2000"
      }
    }, {
      "links" : {
        "self" : "https://api.nasa.gov/neo/rest/v1/neo/3412889?api_key=t0TVs3DtDT2H8Oy2Zy8m2eVrNsAVKAexjcZXUckd"
      },
      "neo_reference_id" : "3412889",
      "name" : "(2008 KZ5)",
      "nasa_jpl_url" : "http://ssd.jpl.nasa.gov/sbdb.cgi?sstr=3412889",
      "absolute_magnitude_h" : 20.1,
      "estimated_diameter" : {
        "kilometers" : {
          "estimated_diameter_min" : 0.2538370294,
          "estimated_diameter_max" : 0.5675968529
        },
        "meters" : {
          "estimated_diameter_min" : 253.8370293645,
          "estimated_diameter_max" : 567.5968528656
        },
        "miles" : {
          "estimated_diameter_min" : 0.1577269688,
          "estimated_diameter_max" : 0.3526882241
        },
        "feet" : {
          "estimated_diameter_min" : 832.7986794202,
          "estimated_diameter_max" : 1862.1944587557
        }
      },
      "is_potentially_hazardous_asteroid" : true,
      "close_approach_data" : [ {
        "close_approach_date" : "2013-09-15",
        "epoch_date_close_approach" : 1379228400000,
        "relative_velocity" : {
          "kilometers_per_second" : "8.6168483396",
          "kilometers_per_hour" : "31020.654022709",
          "miles_per_hour" : "19275.0280509438"
        },
        "miss_distance" : {
          "astronomical" : "0.0902514899",
          "lunar" : "35.1078300476",
          "kilometers" : "13501431",
          "miles" : "8389400"
        },
        "orbiting_body" : "Earth"
      } ],
      "orbital_data" : {
        "orbit_id" : "66",
        "orbit_determination_date" : "2017-04-06 09:03:23",
        "orbit_uncertainty" : "0",
        "minimum_orbit_intersection" : ".00257518",
        "jupiter_tisserand_invariant" : "3.875",
        "epoch_osculation" : "2458000.5",
        "eccentricity" : ".4536756250491251",
        "semi_major_axis" : "1.840911121566751",
        "inclination" : "8.377699143009032",
        "ascending_node_longitude" : "142.6840423541027",
        "orbital_period" : "912.3209734976136",
        "perihelion_distance" : "1.005734617830069",
        "perihelion_argument" : "194.2760280380886",
        "aphelion_distance" : "2.676087625303432",
        "perihelion_time" : "2458365.241826672028",
        "mean_anomaly" : "216.0736172725142",
        "mean_motion" : ".3945979654724464",
        "equinox" : "J2000"
      }
    } ]
  }
}